GLOBALSTAR M024         
1 25883U 99043A   26017.15802995 -.00000001  00000+0  22769-2 0  9995
2 25883  51.9995 257.8306 0002523  77.6973  93.7163 11.10166354138625
GLOBALSTAR M027         
1 25884U 99043B   26017.28630209 -.00000109  00000+0 -17305-2 0  9997
2 25884  52.0249 341.5872 0021500 337.7177  22.2680 11.04372734164894
GLOBALSTAR M054         
1 25885U 99043C   26017.30922140 -.00000107  00000+0 -90520-3 0  9998
2 25885  52.0148  72.8985 0005195 181.9353 257.5663 11.39224097143458
GLOBALSTAR M053         
1 25886U 99043D   26017.30744233 -.00000053  00000+0  44552-3 0  9997
2 25886  52.0004  31.8781 0003468  89.3691 283.9425 11.27669322143603
GLOBALSTAR M058         
1 25907U 99049A   26017.00672901 -.00000030  00000+0  73620-3 0  9999
2 25907  51.9928 258.2182 0001956 348.5585  11.5205 11.93207143567065
GLOBALSTAR M050         
1 25908U 99049B   26017.12890907  .00000069  00000+0  17718-2 0  9997
2 25908  51.9975 249.5835 0010092  95.2276   6.3289 12.07464400174032
GLOBALSTAR M033         
1 25909U 99049C   26017.21517704  .00000025  00000+0  11231-2 0  9995
2 25909  51.9915 106.3953 0013706 347.0511  12.9983 12.20298112561879
GLOBALSTAR M055         
1 25910U 99049D   26017.23874841 -.00000086  00000+0  70212-4 0  9991
2 25910  52.0023 106.6511 0007017 209.7110 150.3344 12.29439275194611
